*******************************************************************************
JPL/HORIZONS              786 Bredichina (A914 HD)         2020-Jun-22 09:28:57
Rec #:     786 (+COV) Soln.date: 2020-May-20_01:12:42   # obs: 2353 (1914-2020)
 
IAU76/J2000 helio. ecliptic osc. elements (au, days, deg., period=Julian yrs):
 
  EPOCH=  2456029.5 ! 2012-Apr-12.00 (TDB)         Residual RMS= .2959
   EC= .1653613004404683   QR= 2.644243926292074   TP= 2455400.4924976155
   OM= 89.90010590593035   W=  133.6300565568748   IN= 14.5521022355463
   A= 3.168130027624569    MA= 109.9399164797867   ADIST= 3.692016128957065
   PER= 5.63914            N= .174783151           ANGMOM= .030196909
   DAN= 3.47838            DDN= 2.76591            L= 224.4637586
   B= 10.4783921           MOID= 1.65699995        TP= 2010-Jul-22.9924976155
 
Asteroid physical parameters (km, seconds, rotational period in hours):
   GM= n.a.                RAD= 54.1545            ROTPER= 29.434
   H= 8.9                  G= .150                 B-V= .692
                           ALBEDO= .052            STYP= C
 
ASTEROID comments: 
1: soln ref.= JPL#39, OCC=0
2: source=ORB
*******************************************************************************
 
 
*******************************************************************************
Ephemeris / WWW_USER Mon Jun 22 09:28:57 2020 Pasadena, USA      / Horizons
*******************************************************************************
Target body name: 786 Bredichina (A914 HD)        {source: JPL#39}
Center body name: Solar System Barycenter (0)     {source: DE431}
Center-site name: BODY CENTER
*******************************************************************************
Start time      : A.D. 1969-Jun-28 00:00:00.0000 TDB
Stop  time      : A.D. 2071-May-04 00:00:00.0000 TDB
Step-size       : 7200 minutes
*******************************************************************************
Center geodetic : 0.00000000,0.00000000,0.0000000 {E-lon(deg),Lat(deg),Alt(km)}
Center cylindric: 0.00000000,0.00000000,0.0000000 {E-lon(deg),Dxy(km),Dz(km)}
Center radii    : (undefined)                                                  
Small perturbers: Yes                             {source: SB431-N16}
Output units    : AU-D
Output type     : GEOMETRIC cartesian states
Output format   : 2 (position and velocity)
Reference frame : Ecliptic of J2000.0
*******************************************************************************
Initial IAU76/J2000 heliocentric ecliptic osculating elements (au, days, deg.):
  EPOCH=  2456029.5 ! 2012-Apr-12.00 (TDB)         Residual RMS= .2959         
   EC= .1653613004404683   QR= 2.644243926292074   TP= 2455400.4924976155      
   OM= 89.90010590593035   W=  133.6300565568748   IN= 14.5521022355463        
  Equivalent ICRF heliocentric equatorial cartesian coordinates (au, au/d):
   X= 3.255310544424935E+00  Y=-2.142036863281231E-01  Z=-1.014205221530085E+00
  VX= 2.746944253756297E-03 VY= 8.055348992858976E-03 VZ= 2.719394456162736E-03
Asteroid physical parameters (km, seconds, rotational period in hours):        
   GM= n.a.                RAD= 54.1545            ROTPER= 29.434              
   H= 8.9                  G= .150                 B-V= .692                   
                           ALBEDO= .052            STYP= C                     
*******************************************************************************
            JDTDB,            Calendar Date (TDB),        delta-T,                      X,                      Y,                      Z,                     VX,                     VY,                     VZ,
******************************************************************************************************************************************************************************************************************
$$SOE
2474420.500000000, A.D. 2062-Aug-19 00:00:00.0000,      69.182886,  1.186807004076703E+00, -2.596852886677473E+00, -3.386778277270432E-01,  9.798820559503643E-03,  3.303920204644272E-03, -2.535450564775129E-03,
2474425.500000000, A.D. 2062-Aug-24 00:00:00.0000,      69.182788,  1.235613428519023E+00, -2.579928619812653E+00, -3.513013975992118E-01,  9.723330446910374E-03,  3.465418435246499E-03, -2.513871439589972E-03,
2474430.500000000, A.D. 2062-Aug-29 00:00:00.0000,      69.182700,  1.284036177091323E+00, -2.562202412997435E+00, -3.638154977732390E-01,  9.645361461085834E-03,  3.624690342882110E-03, -2.491665703553741E-03,
2474435.500000000, A.D. 2062-Sep-03 00:00:00.0000,      69.182622,  1.332063024137606E+00, -2.543685483474951E+00, -3.762170404345243E-01,  9.564981076690657E-03,  3.781702074760139E-03, -2.468851445672951E-03,
2474440.500000000, A.D. 2062-Sep-08 00:00:00.0000,      69.182555,  1.379682081168430E+00, -2.524389211814359E+00, -3.885030280938869E-01,  9.482256672670993E-03,  3.936422145187474E-03, -2.445446703785383E-03,
2474445.500000000, A.D. 2062-Sep-13 00:00:00.0000,      69.182497,  1.426881796190288E+00, -2.504325130198194E+00, -4.006705532826972E-01,  9.397255456079395E-03,  4.088821386086709E-03, -2.421469445117185E-03,
2474450.500000000, A.D. 2062-Sep-18 00:00:00.0000,      69.182448,  1.473650952663758E+00, -2.483504910962347E+00, -4.127167981533247E-01,  9.310044389772201E-03,  4.238872895430681E-03, -2.396937547856588E-03,
2474455.500000000, A.D. 2062-Sep-23 00:00:00.0000,      69.182411,  1.519978668109865E+00, -2.461940355398846E+00, -4.246390339900273E-01,  9.220690123987626E-03,  4.386551983711497E-03, -2.371868783757140E-03,
2474460.500000000, A.D. 2062-Sep-28 00:00:00.0000,      69.182386,  1.565854392383819E+00, -2.439643382830921E+00, -4.364346206354320E-01,  9.129258931689626E-03,  4.531836118592545E-03, -2.346280801769597E-03,
2474465.500000000, A.D. 2062-Oct-03 00:00:00.0000,      69.182375,  1.611267905634531E+00, -2.416626019968779E+00, -4.481010058376897E-01,  9.035816647507694E-03,  4.674704868039377E-03, -2.320191112671395E-03,
2474470.500000000, A.D. 2062-Oct-08 00:00:00.0000,      69.182376,  1.656209315967448E+00, -2.392900390552558E+00, -4.596357245231477E-01,  8.940428610104438E-03,  4.815139842398461E-03, -2.293617074632258E-03,
2474475.500000000, A.D. 2062-Oct-13 00:00:00.0000,      69.182388,  1.700669056827788E+00, -2.368478705286553E+00, -4.710363979990811E-01,  8.843159607990847E-03,  4.953124635864919E-03, -2.266575879671186E-03,
2474480.500000000, A.D. 2062-Oct-18 00:00:00.0000,      69.182410,  1.744637884121839E+00, -2.343373252067373E+00, -4.823007330909717E-01,  8.744073828965063E-03,  5.088644767426044E-03, -2.239084541024203E-03,
2474485.500000000, A.D. 2062-Oct-23 00:00:00.0000,      69.182444,  1.788106873094614E+00, -2.317596386508864E+00, -4.934265212189641E-01,  8.643234813196484E-03,  5.221687621212846E-03, -2.211159881449938E-03,
2474490.500000000, A.D. 2062-Oct-28 00:00:00.0000,      69.182492,  1.831067414981740E+00, -2.291160522766563E+00, -5.044116374181764E-01,  8.540705409806608E-03,  5.352242386362662E-03, -2.182818522457948E-03,
2474495.500000000, A.D. 2062-Nov-02 00:00:00.0000,      69.182552,  1.873511213452664E+00, -2.264078124663636E+00, -5.152540393073795E-01,  8.436547736796257E-03,  5.480299996609976E-03, -2.154076874425537E-03,
2474500.500000000, A.D. 2062-Nov-07 00:00:00.0000,      69.182623,  1.915430280861644E+00, -2.236361697119092E+00, -5.259517660104245E-01,  8.330823144217826E-03,  5.605853069803339E-03, -2.124951127574092E-03,
2474505.500000000, A.D. 2062-Nov-12 00:00:00.0000,      69.182703,  1.956816934322542E+00, -2.208023777878285E+00, -5.365029370346530E-01,  8.223592180507354E-03,  5.728895847503076E-03, -2.095457243782127E-03,
2474510.500000000, A.D. 2062-Nov-17 00:00:00.0000,      69.182791,  1.997663791622983E+00, -2.179076929544960E+00, -5.469057511104179E-01,  8.114914561883298E-03,  5.849424134781929E-03, -2.065610949214170E-03,
2474515.500000000, A.D. 2062-Nov-22 00:00:00.0000,      69.182889,  2.037963766992944E+00, -2.149533731913569E+00, -5.571584849957437E-01,  8.004849144700151E-03,  5.967435240333900E-03, -2.035427727742490E-03,
2474520.500000000, A.D. 2062-Nov-27 00:00:00.0000,      69.182998,  2.077710066742205E+00, -2.119406774600053E+00, -5.672594922500116E-01,  7.893453900609325E-03,  6.082927916996679E-03, -2.004922815129285E-03,
2474525.500000000, A.D. 2062-Dec-02 00:00:00.0000,      69.183115,  2.116896184780262E+00, -2.088708649968734E+00, -5.772072019803698E-01,  7.780785894354976E-03,  6.195902302808884E-03, -1.974111193925091E-03,
2474530.500000000, A.D. 2062-Dec-07 00:00:00.0000,      69.183239,  2.155515898031434E+00, -2.057451946352241E+00, -5.870001175642973E-01,  7.666901264029369E-03,  6.306359862770740E-03, -1.943007589022615E-03,
2474535.500000000, A.D. 2062-Dec-12 00:00:00.0000,      69.183367,  2.193563261757126E+00, -2.025649241560510E+00, -5.966368153514571E-01,  7.551855203663997E-03,  6.414303331480367E-03, -1.911626463808200E-03,
2474540.500000000, A.D. 2062-Dec-17 00:00:00.0000,      69.183499,  2.231032604796798E+00, -1.993313096674136E+00, -6.061159433477153E-01,  7.435701948124261E-03,  6.519736656765067E-03, -1.879982016875213E-03,
2474545.500000000, A.D. 2062-Dec-22 00:00:00.0000,      69.183635,  2.267918524739137E+00, -1.960456050117029E+00, -6.154362198841024E-01,  7.318494760283828E-03,  6.622664944327342E-03, -1.848088179284978E-03,
2474550.500000000, A.D. 2062-Dec-27 00:00:00.0000,      69.183776,  2.304215883034643E+00, -1.927090612003418E+00, -6.245964322734369E-01,  7.200285920398833E-03,  6.723094403355421E-03, -1.815958612368240E-03,
2474555.500000000, A.D. 2063-Jan-01 00:00:00.0000,      69.183920,  2.339919800060180E+00, -1.893229258754260E+00, -6.335954354572146E-01,  7.081126717468547E-03,  6.821032293175855E-03, -1.783606706016789E-03,
